{
  "type": "FeatureCollection",
  "features": [
    {
      "type": "Feature",
      "properties": {
        "norad_id": 35052,
        "name": "IRIDIUM 33 DEB",
        "group": "iridium-33-debris",
        "lat": -84.75027825566528,
        "lon": -19.31262194338381,
        "alt_km": 780.0556391621376,
        "timestamp": "2025-12-02T06:27:53.397048+00:00",
        "meta_object_name": "IRIDIUM 33 DEB",
        "meta_object_id": "1997-051NY",
        "meta_epoch": "2025-12-01T02:29:05.042112",
        "meta_mean_motion": 14.38470014,
        "meta_eccentricity": 0.00134735,
        "meta_inclination": 86.3321,
        "meta_ra_of_asc_node": 25.4643,
        "meta_arg_of_pericenter": 117.5288,
        "meta_mean_anomaly": 242.7281,
        "meta_ephemeris_type": 0,
        "meta_classification_type": "U",
        "meta_norad_cat_id": 35052,
        "meta_element_set_no": 999,
        "meta_rev_at_epoch": 87108,
        "meta_bstar": 0.00021005584,
        "meta_mean_motion_dot": 6.61e-06,
        "meta_mean_motion_ddot": 0,
        "tle_line1": "1 35052U 97051NY  25335.10353058  .00000661  00000+0  21006-3 0  9994",
        "tle_line2": "2 35052  86.3321  25.4643 0013473 117.5288 242.7281 14.38470014871086"
      },
      "geometry": {
        "type": "Point",
        "coordinates": [
          -19.31262194338381,
          -84.75027825566528
        ]
      }
    },
    {
      "type": "Feature",
      "properties": {
        "norad_id": 35080,
        "name": "IRIDIUM 33 DEB",
        "group": "iridium-33-debris",
        "lat": 43.11399371082264,
        "lon": -126.18806721579605,
        "alt_km": 604.6581826184938,
        "timestamp": "2025-12-02T06:27:53.397058+00:00",
        "meta_object_name": "IRIDIUM 33 DEB",
        "meta_object_id": "1997-051PF",
        "meta_epoch": "2025-11-30T05:17:07.150560",
        "meta_mean_motion": 14.83528996,
        "meta_eccentricity": 0.00649663,
        "meta_inclination": 86.2066,
        "meta_ra_of_asc_node": 58.3492,
        "meta_arg_of_pericenter": 222.6272,
        "meta_mean_anomaly": 136.99,
        "meta_ephemeris_type": 0,
        "meta_classification_type": "U",
        "meta_norad_cat_id": 35080,
        "meta_element_set_no": 999,
        "meta_rev_at_epoch": 69502,
        "meta_bstar": 0.0087445777,
        "meta_mean_motion_dot": 0.0007539,
        "meta_mean_motion_ddot": 0,
        "tle_line1": "1 35080U 97051PF  25334.22022165  .00075390  00000+0  87446-2 0  9999",
        "tle_line2": "2 35080  86.2066  58.3492 0064966 222.6272 136.9900 14.83528996695026"
      },
      "geometry": {
        "type": "Point",
        "coordinates": [
          -126.18806721579605,
          43.11399371082264
        ]
      }
    },
    {
      "type": "Feature",
      "properties": {
        "norad_id": 35297,
        "name": "IRIDIUM 33 DEB",
        "group": "iridium-33-debris",
        "lat": -68.70805371362823,
        "lon": 57.89421443152,
        "alt_km": 754.6043682420277,
        "timestamp": "2025-12-02T06:27:53.397068+00:00",
        "meta_object_name": "IRIDIUM 33 DEB",
        "meta_object_id": "1997-051PM",
        "meta_epoch": "2025-11-28T13:02:32.385696",
        "meta_mean_motion": 14.4505178,
        "meta_eccentricity": 0.00162447,
        "meta_inclination": 86.3859,
        "meta_ra_of_asc_node": 68.817,
        "meta_arg_of_pericenter": 185.2069,
        "meta_mean_anomaly": 174.8967,
        "meta_ephemeris_type": 0,
        "meta_classification_type": "U",
        "meta_norad_cat_id": 35297,
        "meta_element_set_no": 999,
        "meta_rev_at_epoch": 70221,
        "meta_bstar": 0.00072341306,
        "meta_mean_motion_dot": 2.549e-05,
        "meta_mean_motion_ddot": 0,
        "tle_line1": "1 35297U 97051PM  25332.54343039  .00002549  00000+0  72341-3 0  9993",
        "tle_line2": "2 35297  86.3859  68.8170 0016244 185.2069 174.8967 14.45051780702214"
      },
      "geometry": {
        "type": "Point",
        "coordinates": [
          57.89421443152,
          -68.70805371362823
        ]
      }
    },
    {
      "type": "Feature",
      "properties": {
        "norad_id": 35299,
        "name": "IRIDIUM 33 DEB",
        "group": "iridium-33-debris",
        "lat": 24.709345184536556,
        "lon": 39.454844767562996,
        "alt_km": 769.9237552217774,
        "timestamp": "2025-12-02T06:27:53.397078+00:00",
        "meta_object_name": "IRIDIUM 33 DEB",
        "meta_object_id": "1997-051PP",
        "meta_epoch": "2025-11-30T15:04:09.703776",
        "meta_mean_motion": 14.40761556,
        "meta_eccentricity": 0.00584597,
        "meta_inclination": 86.2896,
        "meta_ra_of_asc_node": 38.4578,
        "meta_arg_of_pericenter": 141.04,
        "meta_mean_anomaly": 15.9157,
        "meta_ephemeris_type": 0,
        "meta_classification_type": "U",
        "meta_norad_cat_id": 35299,
        "meta_element_set_no": 999,
        "meta_rev_at_epoch": 86156,
        "meta_bstar": 0.00082357118,
        "meta_mean_motion_dot": 2.707e-05,
        "meta_mean_motion_ddot": 0,
        "tle_line1": "1 35299U 97051PP  25334.62789009  .00002707  00000+0  82357-3 0  9991",
        "tle_line2": "2 35299  86.2896  38.4578 0058459 141.0400  15.9157 14.40761556861568"
      },
      "geometry": {
        "type": "Point",
        "coordinates": [
          39.454844767562996,
          24.709345184536556
        ]
      }
    },
    {
      "type": "Feature",
      "properties": {
        "norad_id": 35480,
        "name": "IRIDIUM 33 DEB",
        "group": "iridium-33-debris",
        "lat": 29.407769602251843,
        "lon": -152.60566512099433,
        "alt_km": 714.7542341369253,
        "timestamp": "2025-12-02T06:27:53.397088+00:00",
        "meta_object_name": "IRIDIUM 33 DEB",
        "meta_object_id": "1997-051QA",
        "meta_epoch": "2025-12-01T03:16:06.301056",
        "meta_mean_motion": 14.49682166,
        "meta_eccentricity": 0.0015406,
        "meta_inclination": 86.3582,
        "meta_ra_of_asc_node": 29.9424,
        "meta_arg_of_pericenter": 139.0611,
        "meta_mean_anomaly": 221.1754,
        "meta_ephemeris_type": 0,
        "meta_classification_type": "U",
        "meta_norad_cat_id": 35480,
        "meta_element_set_no": 999,
        "meta_rev_at_epoch": 86863,
        "meta_bstar": 0.00060122978,
        "meta_mean_motion_dot": 2.335e-05,
        "meta_mean_motion_ddot": 0,
        "tle_line1": "1 35480U 97051QA  25335.13618404  .00002335  00000+0  60123-3 0  9994",
        "tle_line2": "2 35480  86.3582  29.9424 0015406 139.0611 221.1754 14.49682166868631"
      },
      "geometry": {
        "type": "Point",
        "coordinates": [
          -152.60566512099433,
          29.407769602251843
        ]
      }
    },
    {
      "type": "Feature",
      "properties": {
        "norad_id": 35484,
        "name": "IRIDIUM 33 DEB",
        "group": "iridium-33-debris",
        "lat": -66.31130648040002,
        "lon": -10.695599203753604,
        "alt_km": 591.8394208087302,
        "timestamp": "2025-12-02T06:27:53.397097+00:00",
        "meta_object_name": "IRIDIUM 33 DEB",
        "meta_object_id": "1997-051QE",
        "meta_epoch": "2025-12-01T19:32:14.692416",
        "meta_mean_motion": 14.97587734,
        "meta_eccentricity": 0.0021829,
        "meta_inclination": 86.3628,
        "meta_ra_of_asc_node": 357.8533,
        "meta_arg_of_pericenter": 162.6444,
        "meta_mean_anomaly": 197.5538,
        "meta_ephemeris_type": 0,
        "meta_classification_type": "U",
        "meta_norad_cat_id": 35484,
        "meta_element_set_no": 999,
        "meta_rev_at_epoch": 61852,
        "meta_bstar": 0.0025031,
        "meta_mean_motion_dot": 0.00029486,
        "meta_mean_motion_ddot": 0,
        "tle_line1": "1 35484U 97051QE  25335.81405894  .00029486  00000+0  25031-2 0  9994",
        "tle_line2": "2 35484  86.3628 357.8533 0021829 162.6444 197.5538 14.97587734618527"
      },
      "geometry": {
        "type": "Point",
        "coordinates": [
          -10.695599203753604,
          -66.31130648040002
        ]
      }
    },
    {
      "type": "Feature",
      "properties": {
        "norad_id": 35488,
        "name": "IRIDIUM 33 DEB",
        "group": "iridium-33-debris",
        "lat": -77.5264771731524,
        "lon": 142.604770158814,
        "alt_km": 650.0895768521887,
        "timestamp": "2025-12-02T06:27:53.397108+00:00",
        "meta_object_name": "IRIDIUM 33 DEB",
        "meta_object_id": "1997-051QJ",
        "meta_epoch": "2025-12-01T08:14:53.482848",
        "meta_mean_motion": 14.82615627,
        "meta_eccentricity": 0.00309682,
        "meta_inclination": 86.3231,
        "meta_ra_of_asc_node": 306.1315,
        "meta_arg_of_pericenter": 78.8041,
        "meta_mean_anomaly": 281.666,
        "meta_ephemeris_type": 0,
        "meta_classification_type": "U",
        "meta_norad_cat_id": 35488,
        "meta_element_set_no": 999,
        "meta_rev_at_epoch": 88097,
        "meta_bstar": 0.0016299271,
        "meta_mean_motion_dot": 0.00013268,
        "meta_mean_motion_ddot": 0,
        "tle_line1": "1 35488U 97051QJ  25335.34367457  .00013268  00000+0  16299-2 0  9995",
        "tle_line2": "2 35488  86.3231 306.1315 0030968  78.8041 281.6660 14.82615627880979"
      },
      "geometry": {
        "type": "Point",
        "coordinates": [
          142.604770158814,
          -77.5264771731524
        ]
      }
    }
  ]
}